AT&T T-16               
1 44333U 19034A   25335.37197583 -.00000094  00000+0  00000+0 0  9997
2 44333   0.0320  79.9936 0000629  83.4777 300.0833  1.00271330 23650
EUTELSAT 7C             
1 44334U 19034B   25335.29160402  .00000070  00000+0  00000+0 0  9992
2 44334   0.0767 183.7949 0003224  50.3527 308.2404  1.00267631  4858
BEIDOU-3 IGSO-2         
1 44337U 19035A   25335.22071368 -.00000025  00000+0  00000+0 0  9992
2 44337  55.2223 160.6035 0037606 202.2564 266.4761  1.00274502 23688
COSMOS 2539             
1 44457U 19048A   25332.75576670  .00000102  00000+0  00000+0 0  9995
2 44457   0.0346 118.8203 0000548 234.0388 359.1353  1.00274305 23216
EDRS-C                  
1 44475U 19049A   25335.46115044 -.00000240  00000+0  00000+0 0  9995
2 44475   0.0540 112.7800 0001185 133.6367 132.7055  1.00270144 23229
INTELSAT 39 (IS-39)     
1 44476U 19049B   25335.44520369  .00000055  00000+0  00000+0 0  9997
2 44476   0.0175 310.5764 0000857 198.4037 143.8086  1.00270456 23143
AMOS-17                 
1 44479U 19050A   25335.29351068  .00000131  00000+0  00000+0 0  9998
2 44479   0.0174 352.3580 0001797 253.5686 307.1515  1.00271823 23200
AEHF-5 (USA 292)        
1 44481U 19051A   25335.45135706 -.00000238  00000+0  00000+0 0  9998
2 44481   1.6960 323.2426 0069123   3.0928 359.7812  1.00274273 23275
EUTELSAT 5 WEST B       
1 44624U 19067A   25335.28917733 -.00000020  00000+0  00000+0 0  9992
2 44624   0.0744 324.1770 0003605 287.1203 278.2236  1.00273164 22455
TJS-4                   
1 44637U 19070A   25335.52077750 -.00000149  00000+0  00000+0 0  9995
2 44637   0.0442  74.2339 0007376 236.3737  31.0511  1.00272126 22486
BEIDOU-3 IGSO-3         
1 44709U 19073A   25324.29956875 -.00000206  00000+0  00000+0 0  9998
2 44709  55.1630 283.1590 0044538 191.5856 168.2409  1.00250097 22360
TIBA-1                  
1 44800U 19080A   25335.65398500  .00000177  00000+0  00000+0 0  9991
2 44800   0.0537   0.7806 0002219 249.6655  91.2485  1.00270725 22079
INMARSAT GX5            
1 44801U 19080B   25335.29238402  .00000097  00000+0  00000+0 0  9997
2 44801   0.0365 344.4400 0002541 263.8194 298.4233  1.00272663  4807
JCSAT-18 (KACIFIC 1)    
1 44868U 19091A   25334.80322341 -.00000179  00000+0  00000+0 0  9996
2 44868   0.0121 240.8785 0000533  14.2727 253.9187  1.00271683 22023
ELEKTRO-L 3             
1 44903U 19095A   25335.51930417 -.00000075  00000+0  00000+0 0  9993
2 44903   0.0430 176.7665 0002657  92.7609  64.0607  1.00271439 21722
SHIJIAN-20 (SJ-20)      
1 44910U 19097A   25335.73380551 -.00000096  00000+0  00000+0 0  9998
2 44910   4.4120  77.5001 0005981 213.7354 121.8194  1.00268965 21713
TJS-5                   
1 44978U 20002A   25335.55025309 -.00000321  00000+0  00000+0 0  9998
2 44978   0.3161  89.3112 0005680 107.5924 179.3797  1.00271053 21719
GSAT-30                 
1 45026U 20005A   25335.44936373 -.00000143  00000+0  00000+0 0  9998
2 45026   0.0429 126.5850 0002235  90.7655  98.0358  1.00270779 21521
EUTELSAT KONNECT        
1 45027U 20005B   25335.29160402  .00000071  00000+0  00000+0 0  9993
2 45027   0.0661  99.3149 0001630 189.7736 253.4984  1.00267171 22340
JCSAT-17                
1 45245U 20013A   25335.45985044 -.00000303  00000+0  00000+0 0  9998
2 45245   5.4056 354.8981 0003469 260.0309 117.2151  1.00271963 21259
GEO-KOMPSAT-2B          
1 45246U 20013B   25335.45829044  .00000000  00000+0  00000+0 0  9999
2 45246   0.0110 298.7776 0002548 318.7927 106.2327  1.00269241 21297
BEIDOU-3 G2             
1 45344U 20017A   25335.52017083 -.00000121  00000+0  00000+0 0  9997
2 45344   2.9784  43.5214 0004464 263.8864  30.5532  1.00270601 21273
AEHF-6 (USA 298)        
1 45465U 20022B   25335.38895668 -.00000278  00000+0  00000+0 0  9997
2 45465   2.9877 299.1718 0047892   7.6502  41.4998  1.00272043 21036
BEIDOU-3 G3             
1 45807U 20040A   25335.17700219 -.00000332  00000+0  00000+0 0  9992
2 45807   1.9607  66.4975 0004962 306.7869 231.2794  1.00267926 20087
APSTAR-6D               
1 45863U 20045A   25334.17533512 -.00000296  00000+0  00000+0 0  9997
2 45863   0.0545 102.7303 0001929 340.9564 182.7840  1.00268363 19863
KOREASAT 116            
1 45920U 20048A   25335.45595043 -.00000340  00000+0  00000+0 0  9993
2 45920   0.0132 304.8425 0001241 280.3508 125.7470  1.00269336 19655
EXPRESS 103             
1 45985U 20053A   25333.38311287 -.00000260  00000+0  00000+0 0  9997
2 45985   0.0188 294.5847 0000395 196.3870 171.9919  1.00271017 19646
EXPRESS 80              
1 45986U 20053B   25331.59247679  .00000000  00000+0  00000+0 0  9993
2 45986   0.0111 327.3969 0002103  70.1943 322.4235  1.00270305 19612
BSAT-4B                 
1 46112U 20056A   25335.45465042 -.00000328  00000+0  00000+0 0  9997
2 46112   0.0292 142.0706 0002294  57.9617 144.0565  1.00267876 19407
MEV-2                   
1 46113U 20056B   25335.14737383  .00000011  00000+0  00000+0 0  9992
2 46113   0.0385  90.7127 0001054 182.1805 209.4408  1.00270335 19170
GALAXY 30 (G-30)        
1 46114U 20056C   25335.46919686  .00000058  00000+0  00000+0 0  9997
2 46114   0.0160 290.4720 0002348 318.3980 225.6310  1.00272375 19318
GAOFEN-13 01            
1 46610U 20071A   25335.31370416 -.00000341  00000+0  00000+0 0  9997
2 46610   0.0108 343.1017 0042746 218.1468 100.3507  1.00272863 18936
TIANTONG-1 2            
1 46916U 20082A   25335.52901088 -.00000335  00000+0  00000+0 0  9999
2 46916   1.1293 307.3864 0003806 345.4321  93.2070  1.00272287 18676
LUCAS (JDRS-1)          
1 47202U 20089A   25335.45092373 -.00000214  00000+0  00000+0 0  9991
2 47202   0.0355 114.0990 0003559 141.7874  67.8196  1.00271680 18436
SXM-7                   
1 47240U 20096A   25335.34464433 -.00000184  00000+0  00000+0 0  9995
2 47240   0.0132  63.4988 0004561  78.6800 327.1770  1.00272304  5469
CMS-01                  
1 47256U 20099A   25335.44936373 -.00000143  00000+0  00000+0 0  9998
2 47256   0.0521 109.4793 0008151 152.7199  53.1513  1.00271347 18211
TURKSAT 5A              
1 47306U 21001A   25335.43887698  .00000176  00000+0  00000+0 0  9997
2 47306   0.0381  93.9457 0000109 176.5778 348.9549  1.00270217 17989
TIANTONG-1 3            
1 47321U 21003A   25335.52043083 -.00000135  00000+0  00000+0 0  9994
2 47321   1.9658 328.4042 0007638 301.6787  69.4417  1.00269581 17985
TJS-6                   
1 47613U 21010A   25335.57127959  .00000064  00000+0  00000+0 0  9996
2 47613   0.0901 104.8374 0002340 225.8891 124.1160  1.00269162 17835
SBIRS GEO-5 (USA 315)   
1 48618U 21042A   25335.45153041 -.00000254  00000+0  00000+0 0  9997
2 48618   5.3641 327.7266 0004612 246.4960 112.7116  1.00271082 16787
FENGYUN 4B              
1 48808U 21047A   25335.11155875 -.00000308  00000+0  00000+0 0  9993
2 48808   0.0612 301.3611 0010392  63.0221 210.6397  1.00273439 16580
SXM-8                   
1 48838U 21049A   25335.38308573 -.00000183  00000+0  00000+0 0  9993
2 48838   0.0192  12.7431 0004208  35.2635  75.2429  1.00268448 16617
TIANLIAN 1-05           
1 49011U 21063A   25335.50760410  .00000130  00000+0  00000+0 0  9990
2 49011   1.0820  82.1133 0005788 175.0478  12.9834  1.00271552 16092
STAR ONE D2             
1 49055U 21069A   25335.41903020 -.00000243  00000+0  00000+0 0  9996
2 49055   0.0105 316.1593 0002288 266.7961 288.4331  1.00270631 15955
EUTELSAT QUANTUM        
1 49056U 21069B   25335.44234367  .00000147  00000+0  00000+0 0  9993
2 49056   0.0381  64.1883 0003526 199.4068  13.9199  1.00272583 15940
ZHONGXING-2E            
1 49062U 21071A   25335.52372419 -.00000270  00000+0  00000+0 0  9991
2 49062   0.0277 264.0849 0001634 349.3652 103.7991  1.00272230 16057
TJS-7                   
1 49115U 21077A   25335.48455060 -.00000102  00000+0  00000+0 0  9999
2 49115   0.0172 300.1640 0000822 304.7201 260.6606  1.00272352  7572
CHINASAT 9B             
1 49125U 21080A   25335.55025309 -.00000291  00000+0  00000+0 0  9990
2 49125   0.0556  99.9209 0003839 142.0442 128.2057  1.00268465 15662
SHIJIAN-21 (SJ-21)      
1 49330U 21094A   25335.34023932 -.00000330  00000+0  00000+0 0  9994
2 49330   4.6732  62.4473 0056718 170.2101  87.7343  1.00246504  3375
SES-17                  
1 49332U 21095A   25335.27695725 -.00000250  00000+0  00000+0 0  9995
2 49332   0.0208  17.2430 0001164 232.3914 213.3699  1.00269488 15878
SYRACUSE 4A             
1 49333U 21095B   25335.51315079  .00000157  00000+0  00000+0 0  9999
2 49333   0.0121 322.4406 0001495 275.5837  62.8501  1.00270706 15961
QZS-1R (MICHIBIKI-1R)   
1 49336U 21096A   25335.17278328 -.00000217  00000+0  00000+0 0  9998
2 49336  37.0524  82.5332 0753298 271.0716 274.2635  1.00260890 15022
ZHONGXING-1D            
1 49505U 21114A   25335.53005089 -.00000315  00000+0  00000+0 0  9998
2 49505   0.0116 248.5591 0002978  14.0739 129.0074  1.00268774 14842
STPSAT-6                
1 49817U 21118A   25335.37197583 -.00000023  00000+0  00000+0 0  9997
2 49817   0.0415  97.3176 0002730 186.9347 168.3324  1.00272843 14597
LDPE-1                  
1 49818U 21118B   25335.42622358 -.00000011  00000+0  00000+0 0  9994
2 49818   3.2470  81.2767 0003835 230.9992 237.8239  1.01742014 14663
EXPRESS AMU-7           
1 50001U 21123A   25335.54281012 -.00000221  00000+0  00000+0 0  9990
2 50001   0.0178 302.1591 0000612 232.8573 236.0704  1.00271163 14552
EXPRESS AMU-3           
1 50002U 21123B   25332.52595623 -.00000302  00000+0  00000+0 0  9992
2 50002   0.0188 298.6680 0000245 219.0223 202.3405  1.00272676  5029
TIANLIAN 2-02           
1 50005U 21124A   25335.54141826  .00000007  00000+0  00000+0 0  9994
2 50005   0.2881  91.0560 0005654 168.3672 177.1153  1.00269921 14634
TURKSAT 5B              
1 50212U 21126A   25335.44121700  .00000168  00000+0  00000+0 0  9992
2 50212   0.0716 334.0612 0004315 321.1849 336.1858  1.00269483 14312
